[{"OBJECT_NAME":"ORBCOMM FM27","OBJECT_ID":"1998-053G","EPOCH":"2026-03-09T11:53:47.305824","MEAN_MOTION":14.3893044,"ECCENTRICITY":0.00018909,"INCLINATION":45.0048,"RA_OF_ASC_NODE":88.78,"ARG_OF_PERICENTER":259.8961,"MEAN_ANOMALY":100.1675,"EPHEMERIS_TYPE":0,"CLASSIFICATION_TYPE":"U","NORAD_CAT_ID":25481,"ELEMENT_SET_NO":999,"REV_AT_EPOCH":43587,"BSTAR":0.00047812945,"MEAN_MOTION_DOT":1.345e-5,"MEAN_MOTION_DDOT":0},{"OBJECT_NAME":"NOAA 16 DEB","OBJECT_ID":"2000-055QF","EPOCH":"2026-03-06T20:23:14.124192","MEAN_MOTION":14.41510863,"ECCENTRICITY":0.00148513,"INCLINATION":99.0928,"RA_OF_ASC_NODE":288.9488,"ARG_OF_PERICENTER":238.3641,"MEAN_ANOMALY":121.6098,"EPHEMERIS_TYPE":0,"CLASSIFICATION_TYPE":"U","NORAD_CAT_ID":42339,"ELEMENT_SET_NO":999,"REV_AT_EPOCH":51275,"BSTAR":0.0021707013,"MEAN_MOTION_DOT":7.017e-5,"MEAN_MOTION_DDOT":0}]
